{"spkid": "50714146", "covariance": {"elements": [{"label": "e", "name": "e", "sigma": 1.17097934760665e-07, "value": ".1684929565374035", "title": "eccentricity", "units": null}, {"sigma": 1.23896704620084e-07, "name": "q", "units": "au", "value": ".9146746842190746", "title": "perihelion distance", "label": "q"}, {"label": "tp", "sigma": 3.99114737493795e-05, "name": "tp", "title": "time of perihelion passage", "value": "2457186.177576544027", "units": "TDB"}, {"label": "node", "units": "deg", "value": "329.17345516189", "title": "longitude of the ascending node", "sigma": 4.96000353298711e-05, "name": "om"}, {"label": "peri", "sigma": 5.30251364989618e-05, "name": "w", "units": "deg", "value": "300.4208192312941", "title": "argument of perihelion"}, {"label": "i", "name": "i", "sigma": 9.63807458156295e-06, "title": "inclination", "value": "3.524679686101267", "units": "deg"}], "data": [["1.371192632521289E-14", "-1.443455455105872E-14", "-2.283758674654331E-13", "-3.224751632113546E-13", "1.667700785044366E-12", "-9.426737812520817E-14"], ["-1.443455455105872E-14", "1.535039341571628E-14", "3.749710922698064E-13", "4.132142715807697E-13", "-1.735461462337479E-12", "1.361989132833611E-13"], ["-2.283758674654331E-13", "3.749710922698064E-13", "1.59292573684741E-9", "5.799965885609867E-10", "7.256502843843871E-10", "3.26481933324628E-10"], ["-3.224751632113546E-13", "4.132142715807697E-13", "5.799965885609867E-10", "2.46016350472446E-9", "-2.013135918293339E-9", "3.293317042141124E-10"], ["1.667700785044366E-12", "-1.735461462337479E-12", "7.256502843843871E-10", "-2.013135918293339E-9", "2.811665100733533E-9", "-6.881195162188626E-11"], ["-9.426737812520817E-14", "1.361989132833611E-13", "3.26481933324628E-10", "3.293317042141124E-10", "-6.881195162188626E-11", "9.28924816397699E-11"]], "labels": ["e", "q", "tp", "node", "peri", "i"], "epoch": "2457114.5"}, "elements": [{"sigma": "1.1705E-7", "name": "e", "title": "eccentricity", "value": ".1685386164445561", "units": null, "label": "e"}, {"sigma": "1.1431E-8", "name": "a", "title": "semi-major axis", "value": "1.100497277022494", "units": "au", "label": "a"}, {"sigma": "1.2369E-7", "name": "q", "value": ".9150209885521212", "title": "perihelion distance", "units": "au", "label": "q"}, {"label": "i", "units": "deg", "value": "3.512876237312416", "title": "inclination; angle with respect to x-y ecliptic plane", "name": "i", "sigma": "9.6733E-6"}, {"label": "node", "value": "328.75428656", "title": "longitude of the ascending node", "units": "deg", "sigma": "5.0829E-5", "name": "om"}, {"label": "peri", "name": "w", "sigma": "5.3055E-5", "title": "argument of perihelion", "value": "300.7326565038664", "units": "deg"}, {"sigma": "8.2845E-5", "name": "ma", "title": "mean anomaly", "value": "188.6510492302274", "units": "deg", "label": "M"}, {"name": "tp", "sigma": "9.9821E-5", "value": "2461401.206221050657", "title": "time of perihelion passage", "units": "TDB", "label": "tp"}, {"label": "period", "value": "421.6789145987736", "title": "sidereal orbital period", "units": "d", "name": "per", "sigma": "6.5698E-6"}, {"label": "n", "title": "mean motion", "value": ".8537301428565359", "units": "deg/d", "name": "n", "sigma": "1.3301E-8"}, {"label": "Q", "sigma": "1.3357E-8", "name": "ad", "value": "1.285973565492866", "title": "aphelion distance", "units": "au"}], "epoch": "2461200.5"}